NORAD_CAT_ID,OBJECT_NAME,OBJECT_TYPE,EPOCH,MEAN_MOTION,ECCENTRICITY,INCLINATION,RA_OF_ASC_NODE,ARG_OF_PERICENTER,MEAN_ANOMALY,BSTAR,MEAN_MOTION_DOT,MEAN_MOTION_DDOT,TLE_LINE0,TLE_LINE1,TLE_LINE2,SEMIMAJOR_AXIS,PERIOD,APOGEE,PERIGEE,DECAYED
52553.0,STARLINK-3858,PAYLOAD,2024-03-16 10:15:22,15.08843099,0.0001643,53.2172,135.6268,71.8598,288.2572,-1.1504e-05,-4.71e-06,0.0,0 STARLINK-3858,1 52553U 22051W   24076.42734191 -.00000471  00000-0 -11504-4 0  9999,2 52553  53.2172 135.6268 0001643  71.8598 288.2572 15.08843099102267,6917.871,95.437,540.873,538.599,0.0
52553.0,STARLINK-3858,PAYLOAD,2024-03-17 03:44:36,15.08839237,0.0001678,53.2169,132.3552,71.6797,288.4377,5.7182e-05,6.22e-06,0.0,0 STARLINK-3858,1 52553U 22051W   24077.15598235  .00000622  00000-0  57182-4 0  9995,2 52553  53.2169 132.3552 0001678  71.6797 288.4377 15.08839237102444,6917.883,95.438,540.909,538.587,0.0
52553.0,STARLINK-3858,PAYLOAD,2024-03-17 10:06:09,15.08840935,0.0001609,53.2169,131.1654,76.5988,283.5183,6.6234e-05,7.66e-06,0.0,0 STARLINK-3858,1 52553U 22051W   24077.42094067  .00000766  00000-0  66234-4 0  9996,2 52553  53.2169 131.1654 0001609  76.5988 283.5183 15.08840935102419,6917.878,95.437,540.856,538.629,0.0
52553.0,STARLINK-3858,PAYLOAD,2024-03-18 13:07:42,15.08841671,0.0001622,53.2168,126.1089,94.4246,265.6931,3.7986e-05,3.17e-06,0.0,0 STARLINK-3858,1 52553U 22051W   24078.54702022  .00000317  00000-0  37986-4 0  9991,2 52553  53.2168 126.1089 0001622  94.4246 265.6931 15.08841671102651,6917.875,95.437,540.862,538.618,0.0
52553.0,STARLINK-3858,PAYLOAD,2024-03-19 09:47:43,15.08844196,0.0001625,53.2164,122.2413,90.6453,269.4725,4.1947e-05,3.8e-06,0.0,0 STARLINK-3858,1 52553U 22051W   24079.40813931  .00000380  00000-0  41947-4 0  9991,2 52553  53.2164 122.2413 0001625  90.6453 269.4725 15.08844196102711,6917.868,95.437,540.857,538.608,0.0
52553.0,STARLINK-3858,PAYLOAD,2024-03-20 09:38:30,15.08838156,0.0001675,53.2169,117.7793,97.12,262.9982,4.6931e-05,4.59e-06,0.0,0 STARLINK-3858,1 52553U 22051W   24080.40174298  .00000459  00000-0  46931-4 0  9994,2 52553  53.2169 117.7793 0001675  97.1200 262.9982 15.08838156102939,6917.886,95.438,540.91,538.592,0.0
52553.0,STARLINK-3858,PAYLOAD,2024-03-20 12:49:16,15.088393,0.0001668,53.2168,117.184,97.3328,262.7853,5.8901e-05,6.49e-06,0.0,0 STARLINK-3858,1 52553U 22051W   24080.53422228  .00000649  00000-0  58901-4 0  9998,2 52553  53.2168 117.1840 0001668  97.3328 262.7853 15.08839300102881,6917.883,95.438,540.901,538.594,0.0
52553.0,STARLINK-3858,PAYLOAD,2024-03-21 11:04:42,15.08829109,0.0001623,53.2169,113.0183,90.4129,269.7049,-8.9419e-05,-1.71e-05,0.0,0 STARLINK-3858,1 52553U 22051W   24081.46159758 -.00001710  00000-0 -89419-4 0  9996,2 52553  53.2169 113.0183 0001623  90.4129 269.7049 15.08829109103095,6917.914,95.438,540.901,538.656,0.0
52553.0,STARLINK-3858,PAYLOAD,2024-03-22 10:55:26,15.08855921,0.0001583,53.217,108.558,97.0576,263.0597,0.00020139,2.92e-05,0.0,0 STARLINK-3858,1 52553U 22051W   24082.45517182  .00002920  00000-0  20139-3 0  9990,2 52553  53.2170 108.5580 0001583  97.0576 263.0597 15.08855921103244,6917.832,95.437,540.792,538.602,0.0
52553.0,STARLINK-3858,PAYLOAD,2024-03-23 01:13:57,15.08824149,0.0001423,53.2159,105.8839,112.5352,247.5791,3.8036e-05,3.17e-06,0.0,0 STARLINK-3858,1 52553U 22051W   24083.05135799  .00000317  00000-0  38036-4 0  9991,2 52553  53.2159 105.8839 0001423 112.5352 247.5791 15.08824149103337,6917.929,95.439,540.778,538.809,0.0
52553.0,STARLINK-3858,PAYLOAD,2024-03-23 18:43:11,15.08838291,0.0001575,53.218,102.6147,91.3077,268.8095,4.4376e-05,4.18e-06,0.0,0 STARLINK-3858,1 52553U 22051W   24083.77999529  .00000418  00000-0  44376-4 0  9995,2 52553  53.2180 102.6147 0001575  91.3077 268.8095 15.08838291103442,6917.886,95.438,540.84,538.661,0.0
52553.0,STARLINK-3858,PAYLOAD,2024-03-24 10:37:00,15.08868522,0.0001831,53.2176,99.6389,93.8935,266.2267,8.2447e-05,1.025e-05,0.0,0 STARLINK-3858,1 52553U 22051W   24084.44237071  .00001025  00000-0  82447-4 0  9993,2 52553  53.2176  99.6389 0001831  93.8935 266.2267 15.08868522103549,6917.793,95.436,540.925,538.392,0.0
52553.0,STARLINK-3858,PAYLOAD,2024-03-24 18:33:58,15.08846569,0.0002248,53.2173,98.1538,91.4657,268.6593,-8.8044e-05,-1.69e-05,0.0,0 STARLINK-3858,1 52553U 22051W   24084.77358882 -.00001690  00000-0 -88044-4 0  9992,2 52553  53.2173  98.1538 0002248  91.4657 268.6593 15.08846569103594,6917.86,95.437,541.28,538.17,0.0
52553.0,STARLINK-3858,PAYLOAD,2024-03-25 05:41:40,15.0883431,0.0001753,53.2172,96.0712,110.8901,249.2279,3.1934e-05,2.2e-06,0.0,0 STARLINK-3858,1 52553U 22051W   24085.23727526  .00000220  00000-0  31934-4 0  9991,2 52553  53.2172  96.0712 0001753 110.8901 249.2279 15.08834310103667,6917.898,95.438,540.975,538.55,0.0
52553.0,STARLINK-3858,PAYLOAD,2024-03-25 10:27:50,15.08835697,0.0001715,53.218,95.1807,98.0372,262.0815,5.22e-05,5.43e-06,0.0,0 STARLINK-3858,1 52553U 22051W   24085.43599581  .00000543  00000-0  52200-4 0  9998,2 52553  53.2180  95.1807 0001715  98.0372 262.0815 15.08835697103622,6917.894,95.438,540.945,538.572,0.0
52553.0,STARLINK-3858,PAYLOAD,2024-03-26 07:07:51,15.0883766,0.0001651,53.2175,91.3137,90.2214,269.8967,-9.5905e-05,-1.814e-05,0.0,0 STARLINK-3858,1 52553U 22051W   24086.29712358 -.00001814  00000-0 -95905-4 0  9995,2 52553  53.2175  91.3137 0001651  90.2214 269.8967 15.08837660103825,6917.888,95.438,540.895,538.61,0.0
52553.0,STARLINK-3858,PAYLOAD,2024-03-26 16:40:10,15.0883533,0.0001633,53.217,89.5311,88.9323,271.1856,-5.856e-05,-1.22e-05,0.0,0 STARLINK-3858,1 52553U 22051W   24086.69456302 -.00001220  00000-0 -58560-4 0  9990,2 52553  53.2170  89.5311 0001633  88.9323 271.1856 15.08835330103812,6917.895,95.438,540.889,538.63,0.0
52553.0,STARLINK-3858,PAYLOAD,2024-03-27 10:09:24,15.08857107,0.0001439,53.2159,86.2603,85.4718,274.6438,0.00069812,0.00010845,0.0,0 STARLINK-3858,1 52553U 22051W   24087.42320041  .00010845  00000-0  69812-3 0  9994,2 52553  53.2159  86.2603 0001439  85.4718 274.6438 15.08857107103990,6917.828,95.436,540.689,538.698,0.0
52553.0,STARLINK-3858,PAYLOAD,2024-03-27 16:30:57,15.08848983,0.0001273,53.2142,85.0674,67.3004,292.8122,0.00046222,7.078e-05,0.0,0 STARLINK-3858,1 52553U 22051W   24087.68816098  .00007078  00000-0  46222-3 0  9998,2 52553  53.2142  85.0674 0001273  67.3004 292.8122 15.08848983104030,6917.853,95.437,540.599,538.837,0.0
52553.0,STARLINK-3858,PAYLOAD,2024-03-27 22:52:29,15.08846725,0.0001771,53.2161,83.8802,83.4333,276.6861,0.00033623,5.068e-05,0.0,0 STARLINK-3858,1 52553U 22051W   24087.95312324  .00005068  00000-0  33623-3 0  9999,2 52553  53.2161  83.8802 0001771  83.4333 276.6861 15.08846725104006,6917.86,95.437,540.95,538.5,0.0
52553.0,STARLINK-3858,PAYLOAD,2024-03-28 06:49:24,15.0885404,0.0001298,53.2155,82.3957,93.225,266.889,0.00025647,3.798e-05,0.0,0 STARLINK-3858,1 52553U 22051W   24088.28431709  .00003798  00000-0  25647-3 0  9990,2 52553  53.2155  82.3957 0001298  93.2250 266.8890 15.08854040104052,6917.837,95.437,540.6,538.805,0.0
52553.0,STARLINK-3858,PAYLOAD,2024-03-28 16:21:43,15.08853313,0.0001239,53.2154,80.6117,92.498,267.6154,0.00021718,3.171e-05,0.0,0 STARLINK-3858,1 52553U 22051W   24088.68175467  .00003171  00000-0  21718-3 0  9990,2 52553  53.2154  80.6117 0001239  92.4980 267.6154 15.08853313104184,6917.84,95.437,540.562,538.848,0.0
52553.0,STARLINK-3858,PAYLOAD,2024-03-28 22:43:16,15.08848747,0.000198,53.2167,79.4215,90.7182,269.4037,0.00019369,2.796e-05,0.0,0 STARLINK-3858,1 52553U 22051W   24088.94671751  .00002796  00000-0  19369-3 0  9997,2 52553  53.2167  79.4215 0001980  90.7182 269.4037 15.08848747104153,6917.854,95.437,541.088,538.349,0.0
52553.0,STARLINK-3858,PAYLOAD,2024-03-29 05:04:49,15.08839222,0.0001821,53.2177,78.2319,93.0547,267.0654,2.2505e-05,7e-07,0.0,0 STARLINK-3858,1 52553U 22051W   24089.21167885  .00000070  00000-0  22505-4 0  9996,2 52553  53.2177  78.2319 0001821  93.0547 267.0654 15.08839222104260,6917.883,95.438,541.008,538.488,0.0
52553.0,STARLINK-3858,PAYLOAD,2024-03-29 08:15:35,15.0884469,0.0001486,53.2162,77.6365,87.1254,272.9909,7.9632e-05,9.8e-06,0.0,0 STARLINK-3858,1 52553U 22051W   24089.34415714  .00000980  00000-0  79632-4 0  9990,2 52553  53.2162  77.6365 0001486  87.1254 272.9909 15.08844690104212,6917.866,95.437,540.759,538.703,0.0
52553.0,STARLINK-3858,PAYLOAD,2024-03-29 16:12:30,15.08845379,0.0001488,53.2164,76.1507,95.3065,264.8097,0.00021271,3.099e-05,0.0,0 STARLINK-3858,1 52553U 22051W   24089.67535811  .00003099  00000-0  21271-3 0  9996,2 52553  53.2164  76.1507 0001488  95.3065 264.8097 15.08845379104267,6917.864,95.437,540.758,538.7,0.0
52553.0,STARLINK-3858,PAYLOAD,2024-03-30 08:06:21,15.08855062,0.0001361,53.2168,73.176,97.6402,262.4745,0.00045962,7.037e-05,0.0,0 STARLINK-3858,1 52553U 22051W   24090.33775443  .00007037  00000-0  45962-3 0  9997,2 52553  53.2168  73.1760 0001361  97.6402 262.4745 15.08855062104432,6917.834,95.437,540.641,538.758,0.0
52553.0,STARLINK-3858,PAYLOAD,2024-03-30 22:24:52,15.08805035,0.0001452,53.2166,70.5018,95.7171,264.3987,-0.00035147,-5.872e-05,0.0,0 STARLINK-3858,1 52553U 22051W   24090.93394290 -.00005872  00000-0 -35147-3 0  9991,2 52553  53.2166  70.5018 0001452  95.7171 264.3987 15.08805035104456,6917.987,95.44,540.857,538.848,0.0
52553.0,STARLINK-3858,PAYLOAD,2024-03-31 04:46:24,15.08841083,0.0001213,53.216,69.3112,88.828,271.2851,0.00092898,0.00014528,0.0,0 STARLINK-3858,1 52553U 22051W   24091.19889896  .00014528  00000-0  92898-3 0  9993,2 52553  53.2160  69.3112 0001213  88.8280 271.2851 15.08841083104562,6917.877,95.437,540.581,538.903,0.0
52553.0,STARLINK-3858,PAYLOAD,2024-03-31 07:57:11,15.0884444,0.0001366,53.2164,68.7173,91.4738,268.6411,0.0010158,0.00015917,0.0,0 STARLINK-3858,1 52553U 22051W   24091.33137968  .00015917  00000-0  10158-2 0  9996,2 52553  53.2164  68.7173 0001366  91.4738 268.6411 15.08844440104510,6917.867,95.437,540.677,538.787,0.0
